48589,STARLINK-2245,2025-12-13T19:11:59.224992,2025-12-14T13:04:14.456627,53.0546,157.1906,0.0001382,89.9903,270.1245,15.06395492,15229-3,25225,1 48589U 21041AN  25347.79999103  .00001987  00000+0  15229-3 0  9996,2 48589  53.0546 157.1906 0001382  89.9903 270.1245 15.06395492252251
48592,STARLINK-2249,2025-12-13T22:43:00.107328,2025-12-14T13:04:14.456627,53.0556,166.7613,0.0001394,83.9753,276.1394,15.06397571,83067-4,25213,1 48592U 21041AR  25347.94652902  .00000956  00000+0  83067-4 0  9991,2 48592  53.0556 166.7613 0001394  83.9753 276.1394 15.06397571252135
48593,STARLINK-2250,2025-12-13T19:10:39.239328,2025-12-14T13:04:14.456627,53.0541,167.1948,0.0001643,81.7315,278.386,15.06403893,-49236-4,25211,1 48593U 21041AS  25347.79906527 -.00001015  00000+0 -49236-4 0  9999,2 48593  53.0541 167.1948 0001643  81.7315 278.3860 15.06403893252118
48594,STARLINK-2251,2025-12-13T21:27:20.912256,2025-12-14T13:04:14.456627,53.0533,136.8551,0.0001377,84.9742,275.1404,15.06395547,37497-3,25255,1 48594U 21041AT  25347.89399204  .00005307  00000+0  37497-3 0  9990,2 48594  53.0533 136.8551 0001377  84.9742 275.1404 15.06395547252559
48595,STARLINK-2252,2025-12-13T21:55:11.839872,2025-12-14T13:04:14.456627,53.0532,166.6843,0.0001419,84.3978,275.7173,15.06395048,79970-4,25340,1 48595U 21041AU  25347.91333148  .00000910  00000+0  79970-4 0  9997,2 48595  53.0532 166.6843 0001419  84.3978 275.7173 15.06395048253406
48596,STARLINK-2253,2025-12-13T22:27:02.509344,2025-12-14T13:04:14.456627,53.0531,166.5839,0.0001152,104.9522,255.1594,15.06425923,87887-3,25259,1 48596U 21041AV  25347.93544571  .00012842  00000+0  87887-3 0  9996,2 48596  53.0531 166.5839 0001152 104.9522 255.1594 15.06425923252592
48597,STARLINK-2255,2025-12-13T19:26:33.117792,2025-12-14T13:04:14.456627,53.0529,167.1469,0.000134,98.3637,261.7504,15.06409229,13958-3,25338,1 48597U 21041AW  25347.81010553  .00001799  00000+0  13958-3 0  9999,2 48597  53.0529 167.1469 0001340  98.3637 261.7504 15.06409229253381
48602,STARLINK-2713,2025-12-13T19:21:53.523072,2025-12-14T13:04:14.456627,53.0532,142.1583,0.0001157,91.696,268.4162,15.06407854,30436-3,25372,1 48602U 21041BB  25347.80686948  .00004256  00000+0  30436-3 0  9993,2 48602  53.0532 142.1583 0001157  91.6960 268.4162 15.06407854253727
48603,STARLINK-2714,2025-12-13T17:16:29.824896,2025-12-14T13:04:14.456627,53.0552,137.5506,0.0001638,88.1956,271.9221,15.06416739,-15327-3,25379,1 48603U 21041BC  25347.71978964 -.00002565  00000+0 -15327-3 0  9991,2 48603  53.0552 137.5506 0001638  88.1956 271.9221 15.06416739253797
48604,STARLINK-2757,2025-12-13T22:05:48.862752,2025-12-14T13:04:14.456627,53.0548,166.6517,0.000157,86.7242,273.3927,15.06396226,-24196-4,25340,1 48604U 21041BD  25347.92070443 -.00000642  00000+0 -24196-4 0  9999,2 48604  53.0548 166.6517 0001570  86.7242 273.3927 15.06396226253400
48639,STARLINK-2739,2025-12-13T17:25:10.708896,2025-12-14T13:04:14.456627,53.0531,142.5346,0.0001214,87.7369,272.3759,15.06379594,-11619-2,25082,1 48639U 21044B   25347.72581839 -.00017535  00000+0 -11619-2 0  9997,2 48639  53.0531 142.5346 0001214  87.7369 272.3759 15.06379594250823
48640,STARLINK-2736,2025-12-13T17:14:35.713824,2025-12-14T13:04:14.456627,53.0548,142.8402,0.000137,90.9523,269.1623,15.06386292,14166-3,25081,1 48640U 21044C   25347.71846891  .00001828  00000+0  14166-3 0  9997,2 48640  53.0548 142.8402 0001370  90.9523 269.1623 15.06386292250816
48641,STARLINK-2754,2025-12-13T19:07:59.419200,2025-12-14T13:04:14.456627,53.0534,147.2051,0.0001613,91.5867,268.5307,15.06407772,28085-3,25076,1 48641U 21044D   25347.79721550  .00003905  00000+0  28085-3 0  9993,2 48641  53.0534 147.2051 0001613  91.5867 268.5307 15.06407772250762
48642,STARLINK-2646,2025-12-13T17:53:41.402976,2025-12-14T13:04:14.456627,53.055,147.449,0.0001846,93.0797,267.0403,15.06407465,-31015-4,25075,1 48642U 21044E   25347.74561809 -.00000744  00000+0 -31015-4 0  9996,2 48642  53.0550 147.4490 0001846  93.0797 267.0403 15.06407465250756
48643,STARLINK-2704,2025-12-13T22:12:23.267520,2025-12-14T13:04:14.456627,53.0551,146.6212,0.0001385,117.9831,242.1298,15.06449461,-89550-3,25078,1 48643U 21044F   25347.92526930 -.00013613  00000+0 -89550-3 0  9998,2 48643  53.0551 146.6212 0001385 117.9831 242.1298 15.06449461250785
48644,STARLINK-2695,2025-12-13T20:32:55.224672,2025-12-14T13:04:14.456627,53.0542,146.939,0.0001365,98.3256,261.7888,15.06407216,-45825-3,25077,1 48644U 21044G   25347.85619473 -.00007102  00000+0 -45825-3 0  9999,2 48644  53.0542 146.9390 0001365  98.3256 261.7888 15.06407216250770
48646,STARLINK-2732,2025-12-13T17:11:14.379360,2025-12-14T13:04:14.456627,53.0533,147.5662,0.0001178,98.7205,261.3917,15.06409588,23970-3,25075,1 48646U 21044J   25347.71613865  .00003292  00000+0  23970-3 0  9996,2 48646  53.0533 147.5662 0001178  98.7205 261.3917 15.06409588250752
48648,STARLINK-2521,2025-12-13T22:13:47.866944,2025-12-14T13:04:14.456627,53.0548,146.7883,0.000125,90.919,269.1942,15.06398155,86720-4,25078,1 48648U 21044L   25347.92624846  .00001010  00000+0  86720-4 0  9991,2 48648  53.0548 146.7883 0001250  90.9190 269.1942 15.06398155250788
48649,STARLINK-2673,2025-12-13T20:11:41.672256,2025-12-14T13:04:14.456627,53.0538,147.0077,0.0001387,90.0001,270.1147,15.0639696,60724-4,25076,1 48649U 21044M   25347.84145454  .00000623  00000+0  60724-4 0  9991,2 48649  53.0538 147.0077 0001387  90.0001 270.1147 15.06396960250769
48650,STARLINK-2672,2025-12-13T23:17:27.414816,2025-12-14T13:04:14.456627,53.0539,146.4245,0.0001739,124.1994,235.916,15.0639638,45794-5,25078,1 48650U 21044N   25347.97045619 -.00000213  00000+0  45794-5 0  9996,2 48650  53.0539 146.4245 0001739 124.1994 235.9160 15.06396380250785
48651,STARLINK-2731,2025-12-13T20:01:05.843424,2025-12-14T13:04:14.456627,53.0554,147.0354,0.000125,88.1998,271.9134,15.06391151,34872-3,25076,1 48651U 21044P   25347.83409541  .00004915  00000+0  34872-3 0  9995,2 48651  53.0554 147.0354 0001250  88.1998 271.9134 15.06391151250762
48652,STARLINK-2727,2025-12-13T21:14:05.876736,2025-12-14T13:04:14.456627,53.0539,146.6845,0.0001254,110.9174,249.195,15.073017,31757-3,25077,1 48652U 21044Q   25347.88479024  .00004566  00000+0  31757-3 0  9995,2 48652  53.0539 146.6845 0001254 110.9174 249.1950 15.07301700250776
48653,STARLINK-2720,2025-12-13T19:50:28.180320,2025-12-14T13:04:14.456627,53.0523,147.0718,0.0001109,87.0718,273.0398,15.06414075,41398-3,25076,1 48653U 21044R   25347.82671505  .00005893  00000+0  41398-3 0  9994,2 48653  53.0523 147.0718 0001109  87.0718 273.0398 15.06414075250761
48655,STARLINK-2657,2025-12-13T21:15:23.524416,2025-12-14T13:04:14.456627,53.0552,146.8053,0.0001421,81.85,278.265,15.06390129,50379-4,25077,1 48655U 21044T   25347.88568894  .00000469  00000+0  50379-4 0  9992,2 48655  53.0552 146.8053 0001421  81.8500 278.2650 15.06390129250774
48656,STARLINK-2701,2025-12-13T21:10:03.081504,2025-12-14T13:04:14.456627,53.0538,146.8224,0.0001644,103.8244,256.2928,15.06417817,-90441-3,25077,1 48656U 21044U   25347.88198011 -.00013734  00000+0 -90441-3 0  9997,2 48656  53.0538 146.8224 0001644 103.8244 256.2928 15.06417817250774
48657,STARLINK-2734,2025-12-13T17:04:30.297792,2025-12-14T13:04:14.456627,53.0547,147.2317,0.0001318,97.4756,262.6383,15.06406109,20305-3,25075,1 48657U 21044V   25347.71146178  .00002745  00000+0  20305-3 0  9997,2 48657  53.0547 147.2317 0001318  97.4756 262.6383 15.06406109250753
48658,STARLINK-2647,2025-12-13T17:48:23.173632,2025-12-14T13:04:14.456627,53.0546,147.4516,0.0001292,88.3029,271.8108,15.06393048,87227-4,25075,1 48658U 21044W   25347.74193488  .00001018  00000+0  87227-4 0  9996,2 48658  53.0546 147.4516 0001292  88.3029 271.8108 15.06393048250753
48659,STARLINK-2717,2025-12-13T22:29:40.481376,2025-12-14T13:04:14.456627,53.0541,146.577,0.0001345,96.5995,263.5147,15.0643268,-48050-3,25078,1 48659U 21044X   25347.93727409 -.00007438  00000+0 -48050-3 0  9998,2 48659  53.0541 146.5770 0001345  96.5995 263.5147 15.06432680250783
48662,STARLINK-2726,2025-12-13T22:20:24.329760,2025-12-14T13:04:14.456627,53.0524,136.6049,0.0001735,111.439,248.6784,15.0640458,-51722-3,25092,1 48662U 21044AA  25347.93083715 -.00007978  00000+0 -51722-3 0  9996,2 48662  53.0524 136.6049 0001735 111.4390 248.6784 15.06404580250921
48663,STARLINK-2667,2025-12-13T17:28:28.497504,2025-12-14T13:04:14.456627,53.0548,137.5134,0.0001216,94.5683,265.5445,15.06389274,16721-3,25089,1 48663U 21044AB  25347.72810761  .00002209  00000+0  16721-3 0  9993,2 48663  53.0548 137.5134 0001216  94.5683 265.5445 15.06389274250893
48666,STARLINK-2666,2025-12-13T16:24:52.367616,2025-12-14T13:04:14.456627,53.0541,138.1829,0.0001259,80.2875,279.8256,15.06399169,-59384-4,25087,1 48666U 21044AE  25347.68393944 -.00001166  00000+0 -59384-4 0  9996,2 48666  53.0541 138.1829 0001259  80.2875 279.8256 15.06399169250879
48667,STARLINK-2735,2025-12-13T20:28:56.195616,2025-12-14T13:04:14.456627,53.055,136.9519,0.0001334,104.9188,255.1949,15.06428111,-43141-3,25091,1 48667U 21044AF  25347.85342819 -.00006706  00000+0 -43141-3 0  9999,2 48667  53.0550 136.9519 0001334 104.9188 255.1949 15.06428111250918
48668,STARLINK-2738,2025-12-13T21:59:10.821408,2025-12-14T13:04:14.456627,53.0545,136.6689,0.0001188,89.7044,270.4081,15.06406666,10327-3,25092,1 48668U 21044AG  25347.91609747  .00001257  00000+0  10327-3 0  9997,2 48668  53.0545 136.6689 0001188  89.7044 270.4081 15.06406666250925
48669,STARLINK-2707,2025-12-13T17:07:14.676384,2025-12-14T13:04:14.456627,53.0552,137.5829,0.0001325,91.6203,268.4938,15.06394244,10614-3,25088,1 48669U 21044AH  25347.71336431  .00001300  00000+0  10614-3 0  9991,2 48669  53.0552 137.5829 0001325  91.6203 268.4938 15.06394244250883
48670,STARLINK-2763,2025-12-13T20:13:00.777504,2025-12-14T13:04:14.456627,53.0548,137.0006,0.0001265,91.6747,268.4387,15.06400191,-15369-3,25090,1 48670U 21044AJ  25347.84237011 -.00002570  00000+0 -15369-3 0  9995,2 48670  53.0548 137.0006 0001265  91.6747 268.4387 15.06400191250908
